OBJECT_NAME,OBJECT_ID,EPOCH,MEAN_MOTION,ECCENTRICITY,INCLINATION,RA_OF_ASC_NODE,ARG_OF_PERICENTER,MEAN_ANOMALY,EPHEMERIS_TYPE,CLASSIFICATION_TYPE,NORAD_CAT_ID,ELEMENT_SET_NO,REV_AT_EPOCH,BSTAR,MEAN_MOTION_DOT,MEAN_MOTION_DDOT
KUZGTU 1 (RS47S),2023-091AV,2026-06-11T22:22:16.979808,15.29740183,.00123479,97.5073,227.3588,114.2109,246.0423,0,U,57217,999,16357,.40382093E-3,.11588E-3,0
SONATE-2,2024-043Q,2026-06-11T22:30:16.803936,15.58325832,.0006785,97.5519,313.0138,213.3126,146.7703,0,U,59112,999,12707,.46836077E-3,.35538E-3,0
MESAT1,2024-125G,2026-06-11T14:24:04.518720,15.62604296,.000906,97.2312,19.9579,224.7831,135.2697,0,U,60209,999,10869,.5647E-3,.50616E-3,0
OOV-CUBE (TUBSAT-30),2024-128F,2026-06-11T14:22:54.209856,15.02751187,.0045327,61.9950,245.0577,132.4986,227.9949,0,U,60240,999,10527,.1598E-3,.1977E-4,0
COLIBRI-S (RS67S),2024-199M,2026-06-11T21:20:27.403584,15.47505263,.0006339,97.3008,36.6963,304.5967,55.4685,0,U,61746,999,13659,.38282919E-3,.19611E-3,0
HORS 3 (RS81S),2024-199U,2026-06-11T22:34:40.240992,15.54608615,.00038789,97.2993,38.6788,310.8700,49.2217,0,U,61753,999,13674,.5190597E-3,.3431E-3,0
HORS 4 (RS82S),2024-199V,2026-06-11T22:00:25.230816,15.59192624,.00029867,97.2940,39.8224,294.4821,65.6124,0,U,61754,999,13682,.56303611E-3,.44174E-3,0
ARCTICSAT 1 (RS74S),2024-199AD,2026-06-11T22:41:53.668320,16.18914720,.00097647,97.2834,46.9017,213.6727,146.3942,0,U,61762,999,13728,.12145648E-2,.2117796E-1,.2363374E-5
SIT-2086,2024-199AF,2026-06-11T21:54:09.730368,15.52722398,.00043445,97.2949,39.1449,280.5583,79.5181,0,U,61764,999,13361,.52252653E-3,.32254E-3,0
HYPERVIEW 1G (RS66S),2024-199AP,2026-06-11T22:00:17.443584,15.74456154,.0002626,97.2893,42.3753,248.9314,111.1670,0,U,61772,999,13384,.83292898E-3,.121988E-2,0
ALTAIR (RS65S),2024-199AW,2026-06-11T21:41:12.283296,15.36928011,.00116087,97.3044,32.2899,332.4733,27.5895,0,U,61779,999,13630,.28508625E-3,.10238E-3,0
ASRTU-1 (AO-123),2024-199AY,2026-06-11T21:17:08.621376,15.35599579,.00128328,97.3015,31.6060,334.9444,25.1175,0,U,61781,999,13311,.20107429E-3,.6895E-4,0
SAMSAT-IONOSPHERE (RS75S),2024-199BB,2026-06-11T22:03:45.618336,15.57163885,.00060046,97.2962,38.6846,304.3709,55.6978,0,U,61784,999,13674,.56695127E-3,.41236E-3,0
RTU MIREA 1 (RS51S),2024-199BC,2026-06-11T21:23:08.816928,15.60510063,.00055329,97.2953,39.4610,297.1840,62.8853,0,U,61785,999,13364,.65746257E-3,.5434E-3,0
TEVEL2-4,2025-052D,2026-06-11T16:54:40.561632,15.34420215,.00047322,97.3917,59.0886,113.7416,246.4323,0,U,63213,999,6927,.53861038E-3,.17902E-3,0
TEVEL2-5,2025-052E,2026-06-11T15:49:23.886336,15.34247244,.00046165,97.3921,58.9918,115.2111,244.9611,0,U,63214,999,6926,.53361723E-3,.17637E-3,0
TEVEL2-6,2025-052F,2026-06-11T16:06:58.241952,15.34210437,.00045055,97.3921,58.9890,114.2026,245.9689,0,U,63215,999,6926,.52870278E-3,.17453E-3,0
TEVEL2-1,2025-052H,2026-06-11T23:01:50.060352,15.33693147,.00045093,97.3891,58.9077,123.4340,236.7334,0,U,63217,999,6929,.49545202E-3,.16082E-3,0
TEVEL2-3,2025-052J,2026-06-11T16:38:35.636928,15.33739822,.00044647,97.3895,58.6629,124.0241,236.1426,0,U,63218,999,6925,.51483366E-3,.1674E-3,0
TEVEL2-2,2025-052K,2026-06-11T23:02:19.638528,15.33701780,.00044495,97.3890,58.9106,123.8478,236.3189,0,U,63219,999,6929,.50082788E-3,.16262E-3,0
TEVEL2-9,2025-052AD,2026-06-11T16:03:50.233824,15.31729290,.00071803,97.3955,58.0067,145.2035,214.9678,0,U,63237,999,6918,.51070091E-3,.15595E-3,0
TEVEL2-7,2025-052AE,2026-06-11T15:27:08.309088,15.31438086,.0007384,97.3956,57.8996,146.6025,213.5683,0,U,63238,999,6917,.50452758E-3,.15266E-3,0
TEVEL2-8,2025-052AF,2026-06-11T15:38:56.320800,15.31421974,.00073852,97.3954,57.8849,147.5513,212.6184,0,U,63239,999,6917,.51056585E-3,.15443E-3,0
INNOSAT 16 (RS92S7),2025-155C,2026-06-11T22:49:29.949312,15.25401305,.00099148,97.4555,130.0955,193.9777,166.1188,0,U,64878,999,7987,.19645759E-3,.4894E-4,0
GEOSCAN 6 (RS92S6),2025-155D,2026-06-11T22:47:42.913536,15.30054302,.00076507,97.4547,131.4815,179.7140,180.4106,0,U,64879,999,7996,.31942393E-3,.9224E-4,0
GEOSCAN 1 (RS92S1),2025-155E,2026-06-11T22:54:09.312480,15.30640990,.00075992,97.4543,131.6294,179.3261,180.7992,0,U,64880,999,7997,.3159535E-3,.929E-4,0
239ALFEROV (RS61S),2025-155F,2026-06-11T22:21:07.943616,15.32800136,.00072966,97.4543,132.1503,176.0220,184.1081,0,U,64881,999,8000,.42902086E-3,.13531E-3,0
GEOSCAN 2 (RS92S2),2025-155Q,2026-06-11T22:46:23.636352,15.30912736,.00074786,97.4541,131.7745,165.6230,194.5225,0,U,64890,999,7998,.32367886E-3,.96E-4,0
GEOSCAN 5 (RS92S5),2025-155R,2026-06-11T22:06:53.814816,15.33118515,.00059858,97.4536,132.2758,179.2793,180.8459,0,U,64891,999,8001,.41615487E-3,.13251E-3,0
GEOSCAN 4 (RS92S4),2025-155S,2026-06-11T21:44:53.270304,15.33269613,.00060312,97.4540,132.3073,179.3927,180.7323,0,U,64892,999,8001,.42115317E-3,.13475E-3,0
