KUZGTU 1 (RS47S)        
1 57217U 23091AV  26162.93214097  .00011588  00000+0  40382-3 0  9991
2 57217  97.5073 227.3588 0012347 114.2109 246.0423 15.29740183163578
SONATE-2                
1 59112U 24043Q   26162.93769449  .00035538  00000+0  46836-3 0  9992
2 59112  97.5519 313.0138 0006785 213.3126 146.7703 15.58325832127076
MESAT1                  
1 60209U 24125G   26162.60005230  .00050616  00000+0  56470-3 0  9996
2 60209  97.2312  19.9579 0009060 224.7831 135.2697 15.62604296108693
OOV-CUBE (TUBSAT-30)    
1 60240U 24128F   26162.59923854  .00001977  00000+0  15980-3 0  9990
2 60240  61.9950 245.0577 0045327 132.4986 227.9949 15.02751187105272
COLIBRI-S (RS67S)       
1 61746U 24199M   26162.88920606  .00019611  00000+0  38283-3 0  9999
2 61746  97.3008  36.6963 0006339 304.5967  55.4685 15.47505263136596
HORS 3 (RS81S)          
1 61753U 24199U   26162.94074353  .00034310  00000+0  51906-3 0  9993
2 61753  97.2993  38.6788 0003878 310.8700  49.2217 15.54608615136745
HORS 4 (RS82S)          
1 61754U 24199V   26162.91695869  .00044174  00000+0  56304-3 0  9998
2 61754  97.2940  39.8224 0002986 294.4821  65.6124 15.59192624136827
ARCTICSAT 1 (RS74S)     
1 61762U 24199AD  26162.94576005  .02117796  23634-5  12146-2 0  9992
2 61762  97.2834  46.9017 0009764 213.6727 146.3942 16.18914720137287
SIT-2086                
1 61764U 24199AF  26162.91261262  .00032254  00000+0  52253-3 0  9990
2 61764  97.2949  39.1449 0004344 280.5583  79.5181 15.52722398133611
HYPERVIEW 1G (RS66S)    
1 61772U 24199AP  26162.91686856  .00121988  00000+0  83293-3 0  9990
2 61772  97.2893  42.3753 0002626 248.9314 111.1670 15.74456154133842
ALTAIR (RS65S)          
1 61779U 24199AW  26162.90361439  .00010238  00000+0  28509-3 0  9997
2 61779  97.3044  32.2899 0011608 332.4733  27.5895 15.36928011136308
ASRTU-1 (AO-123)        
1 61781U 24199AY  26162.88690534  .00006895  00000+0  20107-3 0  9998
2 61781  97.3015  31.6060 0012832 334.9444  25.1175 15.35599579133111
SAMSAT-IONOSPHERE (RS7*)
1 61784U 24199BB  26162.91927799  .00041236  00000+0  56695-3 0  9990
2 61784  97.2962  38.6846 0006004 304.3709  55.6978 15.57163885136744
RTU MIREA 1 (RS51S)     
1 61785U 24199BC  26162.89107427  .00054340  00000+0  65746-3 0  9993
2 61785  97.2953  39.4610 0005532 297.1840  62.8853 15.60510063133649
TEVEL2-4                
1 63213U 25052D   26162.70463613  .00017902  00000+0  53861-3 0  9990
2 63213  97.3917  59.0886 0004732 113.7416 246.4323 15.34420215 69273
TEVEL2-5                
1 63214U 25052E   26162.65930424  .00017637  00000+0  53362-3 0  9995
2 63214  97.3921  58.9918 0004616 115.2111 244.9611 15.34247244 69264
TEVEL2-6                
1 63215U 25052F   26162.67150743  .00017453  00000+0  52870-3 0  9995
2 63215  97.3921  58.9890 0004505 114.2026 245.9689 15.34210437 69265
TEVEL2-1                
1 63217U 25052H   26162.95960718  .00016082  00000+0  49545-3 0  9991
2 63217  97.3891  58.9077 0004509 123.4340 236.7334 15.33693147 69295
TEVEL2-3                
1 63218U 25052J   26162.69346802  .00016740  00000+0  51483-3 0  9990
2 63218  97.3895  58.6629 0004464 124.0241 236.1426 15.33739822 69250
TEVEL2-2                
1 63219U 25052K   26162.95994952  .00016262  00000+0  50083-3 0  9999
2 63219  97.3890  58.9106 0004449 123.8478 236.3189 15.33701780 69295
TEVEL2-9                
1 63237U 25052AD  26162.66933141  .00015595  00000+0  51070-3 0  9995
2 63237  97.3955  58.0067 0007180 145.2035 214.9678 15.31729290 69183
TEVEL2-7                
1 63238U 25052AE  26162.64384617  .00015266  00000+0  50453-3 0  9991
2 63238  97.3956  57.8996 0007384 146.6025 213.5683 15.31438086 69173
TEVEL2-8                
1 63239U 25052AF  26162.65204075  .00015443  00000+0  51057-3 0  9990
2 63239  97.3954  57.8849 0007385 147.5513 212.6184 15.31421974 69176
INNOSAT 16 (RS92S7)     
1 64878U 25155C   26162.95104108  .00004894  00000+0  19646-3 0  9999
2 64878  97.4555 130.0955 0009914 193.9777 166.1188 15.25401305 79877
GEOSCAN 6 (RS92S6)      
1 64879U 25155D   26162.94980224  .00009224  00000+0  31942-3 0  9995
2 64879  97.4547 131.4815 0007650 179.7140 180.4106 15.30054302 79966
GEOSCAN 1 (RS92S1)      
1 64880U 25155E   26162.95427445  .00009290  00000+0  31595-3 0  9996
2 64880  97.4543 131.6294 0007599 179.3261 180.7992 15.30640990 79970
239ALFEROV (RS61S)      
1 64881U 25155F   26162.93134194  .00013531  00000+0  42902-3 0  9998
2 64881  97.4543 132.1503 0007296 176.0220 184.1081 15.32800136 80008
GEOSCAN 2 (RS92S2)      
1 64890U 25155Q   26162.94888468  .00009600  00000+0  32368-3 0  9996
2 64890  97.4541 131.7745 0007478 165.6230 194.5225 15.30912736 79984
GEOSCAN 5 (RS92S5)      
1 64891U 25155R   26162.92145619  .00013251  00000+0  41615-3 0  9991
2 64891  97.4536 132.2758 0005985 179.2793 180.8459 15.33118515 80014
GEOSCAN 4 (RS92S4)      
1 64892U 25155S   26162.90617211  .00013475  00000+0  42115-3 0  9996
2 64892  97.4540 132.3073 0006031 179.3927 180.7323 15.33269613 80019
